{
  "norad_id": 67282,
  "name": "2025-313AL",
  "history": [
    {
      "epoch": "2026-03-28T21:47:14.852256",
      "apogee_km": 505.64311776460727,
      "perigee_km": 492.9795346126293,
      "latitude_deg": -84.79936940368839,
      "longitude_deg": -84.65016415994614,
      "semi_major_axis_km": 6877.448326188618,
      "eccentricity": 0.00092066,
      "inclination_deg": 97.3971,
      "raan_deg": 163.9104,
      "arg_perigee_deg": 282.3958,
      "mean_anomaly_deg": 77.6248,
      "mean_motion_rev_day": 15.22165092
    },
    {
      "epoch": "2026-03-29T04:05:53.835936",
      "apogee_km": 505.6263242521154,
      "perigee_km": 492.9553512038856,
      "latitude_deg": 35.93152289410207,
      "longitude_deg": -59.4068489598576,
      "semi_major_axis_km": 6877.427837728,
      "eccentricity": 0.0009212,
      "inclination_deg": 97.3971,
      "raan_deg": 164.169,
      "arg_perigee_deg": 281.4568,
      "mean_anomaly_deg": 78.5633,
      "mean_motion_rev_day": 15.22171894
    }
  ]
}